start=new Date('2021-11-19T00:00:00.000Z').valueOf();
sats=[{"GP_ID":"190039326","NORAD_CAT_ID":"46330","DECAY_DATE":null,"APOAPSIS":"548.458","EPOCH":"2021-11-18T21:59:28.949856","REV_AT_EPOCH":"6769","FILE":"3218669","OBJECT_TYPE":"PAYLOAD","SITE":"AFETR","TIME_SYSTEM":"UTC","COUNTRY_CODE":"US","MEAN_MOTION_DOT":"0.00000420","PERIAPSIS":"546.001","MEAN_ANOMALY":"288.8584","MEAN_ELEMENT_THEORY":"SGP4","TLE_LINE2":"2 46330  53.0535 212.5839 0001774  71.2598 288.8584 15.06394795 67690","RCS_SIZE":"LARGE","CLASSIFICATION_TYPE":"U","EPHEMERIS_TYPE":"0","LAUNCH_DATE":"2020-09-03","ARG_OF_PERICENTER":"71.2598","ECCENTRICITY":"0.00017740","OBJECT_NAME":"STARLINK-1710","BSTAR":"0.00004708600000","CENTER_NAME":"EARTH","MEAN_MOTION_DDOT":"0.0000000000000","OBJECT_ID":"2020-062F","INCLINATION":"53.0535","ELEMENT_SET_NO":"999","MEAN_MOTION":"15.06394795","RA_OF_ASC_NODE":"212.5839","PERIOD":"95.592","TLE_LINE1":"1 46330U 20062F   21322.91630729  .00000420  00000-0  47086-4 0  9998","REF_FRAME":"TEME","SEMIMAJOR_AXIS":"6925.365"},{"PERIAPSIS":"545.823","MEAN_ANOMALY":"288.8357","MEAN_ELEMENT_THEORY":"SGP4","RCS_SIZE":"LARGE","TLE_LINE2":"2 46331  53.0551 233.3302 0002000  71.2849 288.8357 15.06401838 67388","CLASSIFICATION_TYPE":"U","ARG_OF_PERICENTER":"71.2849","EPHEMERIS_TYPE":"0","LAUNCH_DATE":"2020-09-03","MEAN_MOTION_DDOT":"0.0000000000000","CENTER_NAME":"EARTH","BSTAR":"0.00002453700000","ECCENTRICITY":"0.00020000","OBJECT_NAME":"STARLINK-1719","ELEMENT_SET_NO":"999","INCLINATION":"53.0551","OBJECT_ID":"2020-062G","SEMIMAJOR_AXIS":"6925.343","REF_FRAME":"TEME","TLE_LINE1":"1 46331U 20062G   21322.75227334  .00000084  00000-0  24537-4 0  9997","PERIOD":"95.592","MEAN_MOTION":"15.06401838","RA_OF_ASC_NODE":"233.3302","DECAY_DATE":null,"APOAPSIS":"548.593","NORAD_CAT_ID":"46331","GP_ID":"190039577","EPOCH":"2021-11-18T18:03:16.416576","REV_AT_EPOCH":"6738","OBJECT_TYPE":"PAYLOAD","FILE":"3218669","TIME_SYSTEM":"UTC","SITE":"AFETR","COUNTRY_CODE":"US","MEAN_MOTION_DOT":"0.00000084"},{"REV_AT_EPOCH":"6738","APOAPSIS":"548.492","DECAY_DATE":null,"GP_ID":"190038325","NORAD_CAT_ID":"46332","EPOCH":"2021-11-18T18:19:12.058464","COUNTRY_CODE":"US","MEAN_MOTION_DOT":"-0.00000584","FILE":"3218669","OBJECT_TYPE":"PAYLOAD","TIME_SYSTEM":"UTC","SITE":"AFETR","TLE_LINE2":"2 46332  53.0531 233.2672 0001846  71.1699 288.9490 15.06399967 67383","RCS_SIZE":"LARGE","CLASSIFICATION_TYPE":"U","PERIAPSIS":"545.935","MEAN_ANOMALY":"288.9490","MEAN_ELEMENT_THEORY":"SGP4","ELEMENT_SET_NO":"999","INCLINATION":"53.0531","OBJECT_ID":"2020-062H","TLE_LINE1":"1 46332U 20062H   21322.76333401 -.00000584  00000-0 -20313-4 0  9997","REF_FRAME":"TEME","PERIOD":"95.592","SEMIMAJOR_AXIS":"6925.349","MEAN_MOTION":"15.06399967","RA_OF_ASC_NODE":"233.2672","ARG_OF_PERICENTER":"71.1699","EPHEMERIS_TYPE":"0","LAUNCH_DATE":"2020-09-03","CENTER_NAME":"EARTH","MEAN_MOTION_DDOT":"0.0000000000000","ECCENTRICITY":"0.00018460","OBJECT_NAME":"STARLINK-1721","BSTAR":"-0.00002031300000"},{"EPOCH":"2021-11-18T20:15:58.947264","APOAPSIS":"548.752","DECAY_DATE":null,"GP_ID":"190038575","NORAD_CAT_ID":"46333","REV_AT_EPOCH":"6739","TIME_SYSTEM":"UTC","SITE":"AFETR","FILE":"3218669","OBJECT_TYPE":"PAYLOAD","MEAN_MOTION_DOT":"-0.00000210","COUNTRY_CODE":"US","MEAN_ELEMENT_THEORY":"SGP4","MEAN_ANOMALY":"295.8645","PERIAPSIS":"545.727","CLASSIFICATION_TYPE":"U","TLE_LINE2":"2 46333  53.0542 232.9148 0002184  64.2569 295.8645 15.06391616 67398","RCS_SIZE":"LARGE","CENTER_NAME":"EARTH","MEAN_MOTION_DDOT":"0.0000000000000","ECCENTRICITY":"0.00021840","OBJECT_NAME":"STARLINK-1723","BSTAR":"0.00000481350000","ARG_OF_PERICENTER":"64.2569","EPHEMERIS_TYPE":"0","LAUNCH_DATE":"2020-09-03","TLE_LINE1":"1 46333U 20062J   21322.84443226 -.00000210  00000-0  48135-5 0  9992","PERIOD":"95.593","REF_FRAME":"TEME","SEMIMAJOR_AXIS":"6925.374","RA_OF_ASC_NODE":"232.9148","MEAN_MOTION":"15.06391616","ELEMENT_SET_NO":"999","INCLINATION":"53.0542","OBJECT_ID":"2020-062J"},{"EPOCH":"2021-11-18T21:15:39.193056","NORAD_CAT_ID":"46334","GP_ID":"190039826","DECAY_DATE":null,"APOAPSIS":"548.348","REV_AT_EPOCH":"6768","SITE":"AFETR","TIME_SYSTEM":"UTC","OBJECT_TYPE":"PAYLOAD","FILE":"3218669","MEAN_MOTION_DOT":"-0.00000271","COUNTRY_CODE":"US","MEAN_ELEMENT_THEORY":"SGP4","PERIAPSIS":"546.100","MEAN_ANOMALY":"283.4261","CLASSIFICATION_TYPE":"U","RCS_SIZE":"LARGE","TLE_LINE2":"2 46334  53.0534 212.7144 0001623  76.6908 283.4261 15.06396580 67687","BSTAR":"0.00000070051000","OBJECT_NAME":"STARLINK-1725","ECCENTRICITY":"0.00016230","MEAN_MOTION_DDOT":"0.0000000000000","CENTER_NAME":"EARTH","EPHEMERIS_TYPE":"0","LAUNCH_DATE":"2020-09-03","ARG_OF_PERICENTER":"76.6908","MEAN_MOTION":"15.06396580","RA_OF_ASC_NODE":"212.7144","SEMIMAJOR_AXIS":"6925.359","PERIOD":"95.592","TLE_LINE1":"1 46334U 20062K   21322.88587029 -.00000271  00000-0  70051-6 0  9997","REF_FRAME":"TEME","OBJECT_ID":"2020-062K","INCLINATION":"53.0534","ELEMENT_SET_NO":"999"},{"EPOCH":"2021-11-18T20:58:26.615424","APOAPSIS":"548.620","DECAY_DATE":null,"NORAD_CAT_ID":"46335","GP_ID":"190040077","REV_AT_EPOCH":"6740","TIME_SYSTEM":"UTC","SITE":"AFETR","OBJECT_TYPE":"PAYLOAD","FILE":"3218669","MEAN_MOTION_DOT":"0.00000280","COUNTRY_CODE":"US","MEAN_ELEMENT_THEORY":"SGP4","PERIAPSIS":"545.838","MEAN_ANOMALY":"296.9959","CLASSIFICATION_TYPE":"U","RCS_SIZE":"LARGE","TLE_LINE2":"2 46335  53.0530 232.7686 0002008  63.1235 296.9959 15.06394951 67402","MEAN_MOTION_DDOT":"0.0000000000000","CENTER_NAME":"EARTH","BSTAR":"0.00003768500000","OBJECT_NAME":"STARLINK-1727","ECCENTRICITY":"0.00020080","ARG_OF_PERICENTER":"63.1235","LAUNCH_DATE":"2020-09-03","EPHEMERIS_TYPE":"0","SEMIMAJOR_AXIS":"6925.364","TLE_LINE1":"1 46335U 20062L   21322.87391916  .00000280  00000-0  37685-4 0  9998","PERIOD":"95.592","REF_FRAME":"TEME","RA_OF_ASC_NODE":"232.7686","MEAN_MOTION":"15.06394951","ELEMENT_SET_NO":"999","INCLINATION":"53.0530","OBJECT_ID":"2020-062L"},{"EPOCH":"2021-11-18T20:45:09.984096","GP_ID":"190038825","NORAD_CAT_ID":"46336","DECAY_DATE":null,"APOAPSIS":"548.520","REV_AT_EPOCH":"6767","SITE":"AFETR","TIME_SYSTEM":"UTC","FILE":"3218669","OBJECT_TYPE":"PAYLOAD","MEAN_MOTION_DOT":"-0.00000539","COUNTRY_CODE":"US","MEAN_ELEMENT_THEORY":"SGP4","PERIAPSIS":"545.924","MEAN_ANOMALY":"291.3116","CLASSIFICATION_TYPE":"U","TLE_LINE2":"2 46336  53.0539 212.8227 0001874  68.8073 291.3116 15.06397344 67676","RCS_SIZE":"LARGE","ECCENTRICITY":"0.00018740","OBJECT_NAME":"STARLINK-1738","BSTAR":"-0.00001728900000","CENTER_NAME":"EARTH","MEAN_MOTION_DDOT":"0.0000000000000","LAUNCH_DATE":"2020-09-03","EPHEMERIS_TYPE":"0","ARG_OF_PERICENTER":"68.8073","RA_OF_ASC_NODE":"212.8227","MEAN_MOTION":"15.06397344","TLE_LINE1":"1 46336U 20062M   21322.86469889 -.00000539  00000-0 -17289-4 0  9990","PERIOD":"95.592","REF_FRAME":"TEME","SEMIMAJOR_AXIS":"6925.357","OBJECT_ID":"2020-062M","INCLINATION":"53.0539","ELEMENT_SET_NO":"999"},{"OBJECT_NAME":"STARLINK-1750","ECCENTRICITY":"0.00020690","BSTAR":"0.00009758300000","CENTER_NAME":"EARTH","MEAN_MOTION_DDOT":"0.0000000000000","EPHEMERIS_TYPE":"0","LAUNCH_DATE":"2020-09-03","ARG_OF_PERICENTER":"71.5410","RA_OF_ASC_NODE":"212.7448","MEAN_MOTION":"15.06401037","TLE_LINE1":"1 46337U 20062N   21322.87944213  .00001172  00000-0  97583-4 0  9998","PERIOD":"95.592","REF_FRAME":"TEME","SEMIMAJOR_AXIS":"6925.345","OBJECT_ID":"2020-062N","INCLINATION":"53.0524","ELEMENT_SET_NO":"999","MEAN_ELEMENT_THEORY":"SGP4","PERIAPSIS":"545.778","MEAN_ANOMALY":"288.5804","CLASSIFICATION_TYPE":"U","TLE_LINE2":"2 46337  53.0524 212.7448 0002069  71.5410 288.5804 15.06401037 67686","RCS_SIZE":"LARGE","SITE":"AFETR","TIME_SYSTEM":"UTC","FILE":"3218669","OBJECT_TYPE":"PAYLOAD","MEAN_MOTION_DOT":"0.00001172","COUNTRY_CODE":"US","EPOCH":"2021-11-18T21:06:23.800032","GP_ID":"190039075","NORAD_CAT_ID":"46337","APOAPSIS":"548.643","DECAY_DATE":null,"REV_AT_EPOCH":"6768"},{"REV_AT_EPOCH":"6739","EPOCH":"2021-11-18T20:42:31.508352","DECAY_DATE":null,"APOAPSIS":"548.341","NORAD_CAT_ID":"46338","GP_ID":"190039327","MEAN_MOTION_DOT":"-0.00000093","COUNTRY_CODE":"US","TIME_SYSTEM":"UTC","SITE":"AFETR","OBJECT_TYPE":"PAYLOAD","FILE":"3218669","CLASSIFICATION_TYPE":"U","RCS_SIZE":"LARGE","TLE_LINE2":"2 46338  53.0538 232.8131 0001573  66.2444 293.8710 15.06387473 67391","MEAN_ELEMENT_THEORY":"SGP4","MEAN_ANOMALY":"293.8710","PERIAPSIS":"546.163","SEMIMAJOR_AXIS":"6925.387","TLE_LINE1":"1 46338U 20062P   21322.86286468 -.00000093  00000-0  12682-4 0  9998","REF_FRAME":"TEME","PERIOD":"95.593","MEAN_MOTION":"15.06387473","RA_OF_ASC_NODE":"232.8131","ELEMENT_SET_NO":"999","OBJECT_ID":"2020-062P","INCLINATION":"53.0538","MEAN_MOTION_DDOT":"0.0000000000000","CENTER_NAME":"EARTH","BSTAR":"0.00001268200000","OBJECT_NAME":"STARLINK-1752","ECCENTRICITY":"0.00015730","ARG_OF_PERICENTER":"66.2444","EPHEMERIS_TYPE":"0","LAUNCH_DATE":"2020-09-03"},{"ARG_OF_PERICENTER":"68.7772","LAUNCH_DATE":"2020-09-03","EPHEMERIS_TYPE":"0","MEAN_MOTION_DDOT":"0.0000000000000","CENTER_NAME":"EARTH","BSTAR":"0.00039853000000","OBJECT_NAME":"STARLINK-1757","ECCENTRICITY":"0.00015380","ELEMENT_SET_NO":"999","INCLINATION":"53.0478","OBJECT_ID":"2020-062Q","SEMIMAJOR_AXIS":"6683.785","REF_FRAME":"TEME","TLE_LINE1":"1 46339U 20062Q   21322.89160705  .00115861  00000-0  39853-3 0  9994","PERIOD":"90.634","MEAN_MOTION":"15.88799228","RA_OF_ASC_NODE":"170.8346","PERIAPSIS":"304.622","MEAN_ANOMALY":"291.3417","MEAN_ELEMENT_THEORY":"SGP4","RCS_SIZE":"LARGE","TLE_LINE2":"2 46339  53.0478 170.8346 0001538  68.7772 291.3417 15.88799228 68276","CLASSIFICATION_TYPE":"U","OBJECT_TYPE":"PAYLOAD","FILE":"3218669","TIME_SYSTEM":"UTC","SITE":"AFETR","COUNTRY_CODE":"US","MEAN_MOTION_DOT":"0.00115861","DECAY_DATE":null,"APOAPSIS":"306.678","NORAD_CAT_ID":"46339","GP_ID":"190039578","EPOCH":"2021-11-18T21:23:54.849120","REV_AT_EPOCH":"6827"}];
